{"fetched_at":"2026-07-21T17:53:08.726Z","source":"https://celestrak.org/NORAD/elements/gp.php?GROUP=qianfan&FORMAT=JSON","constellation":"qianfan","records":[{"OBJECT_NAME":"QIANFAN-1","OBJECT_ID":"2024-140A","EPOCH":"2026-07-21T06:04:00.091776","CLASSIFICATION_TYPE":"U","MEAN_MOTION":13.51021168,"ECCENTRICITY":0.00152882,"INCLINATION":88.9727,"RA_OF_ASC_NODE":276.3986,"ARG_OF_PERICENTER":300.7992,"MEAN_ANOMALY":59.1654,"EPHEMERIS_TYPE":0,"NORAD_CAT_ID":60379,"ELEMENT_SET_NO":999,"REV_AT_EPOCH":9712,"BSTAR":0.000081972138,"MEAN_MOTION_DOT":6.5e-7,"MEAN_MOTION_DDOT":0},{"OBJECT_NAME":"QIANFAN-2","OBJECT_ID":"2024-140B","EPOCH":"2026-07-21T04:58:58.646208","CLASSIFICATION_TYPE":"U","MEAN_MOTION":13.51016996,"ECCENTRICITY":0.00104307,"INCLINATION":88.9714,"RA_OF_ASC_NODE":276.2126,"ARG_OF_PERICENTER":268.3902,"MEAN_ANOMALY":91.6054,"EPHEMERIS_TYPE":0,"NORAD_CAT_ID":60380,"ELEMENT_SET_NO":999,"REV_AT_EPOCH":9717,"BSTAR":0.000082314273,"MEAN_MOTION_DOT":6.5e-7,"MEAN_MOTION_DDOT":0},{"OBJECT_NAME":"QIANFAN-3","OBJECT_ID":"2024-140C","EPOCH":"2026-07-21T05:10:45.853536","CLASSIFICATION_TYPE":"U","MEAN_MOTION":13.51018062,"ECCENTRICITY":0.00115334,"INCLINATION":88.9706,"RA_OF_ASC_NODE":276.3277,"ARG_OF_PERICENTER":283.7046,"MEAN_ANOMALY":76.2821,"EPHEMERIS_TYPE":0,"NORAD_CAT_ID":60381,"ELEMENT_SET_NO":999,"REV_AT_EPOCH":9708,"BSTAR":0.000092798293,"MEAN_MOTION_DOT":7.2e-7,"MEAN_MOTION_DDOT":0},{"OBJECT_NAME":"QIANFAN-4","OBJECT_ID":"2024-140D","EPOCH":"2026-07-21T04:35:05.157024","CLASSIFICATION_TYPE":"U","MEAN_MOTION":13.51021035,"ECCENTRICITY":0.00106408,"INCLINATION":88.9731,"RA_OF_ASC_NODE":276.2834,"ARG_OF_PERICENTER":271.655,"MEAN_ANOMALY":88.3382,"EPHEMERIS_TYPE":0,"NORAD_CAT_ID":60382,"ELEMENT_SET_NO":999,"REV_AT_EPOCH":9720,"BSTAR":0.000079777721,"MEAN_MOTION_DOT":6.3e-7,"MEAN_MOTION_DDOT":0},{"OBJECT_NAME":"QIANFAN-5","OBJECT_ID":"2024-140E","EPOCH":"2026-07-21T05:46:20.159904","CLASSIFICATION_TYPE":"U","MEAN_MOTION":13.510117,"ECCENTRICITY":0.00128779,"INCLINATION":88.9706,"RA_OF_ASC_NODE":276.3497,"ARG_OF_PERICENTER":296.9203,"MEAN_ANOMALY":63.0632,"EPHEMERIS_TYPE":0,"NORAD_CAT_ID":60383,"ELEMENT_SET_NO":999,"REV_AT_EPOCH":9707,"BSTAR":0.00010551581,"MEAN_MOTION_DOT":8e-7,"MEAN_MOTION_DDOT":0},{"OBJECT_NAME":"QIANFAN-6","OBJECT_ID":"2024-140F","EPOCH":"2026-07-21T04:29:11.158944","CLASSIFICATION_TYPE":"U","MEAN_MOTION":13.5101981,"ECCENTRICITY":0.00107583,"INCLINATION":88.9733,"RA_OF_ASC_NODE":276.1613,"ARG_OF_PERICENTER":278.9608,"MEAN_ANOMALY":81.0325,"EPHEMERIS_TYPE":0,"NORAD_CAT_ID":60384,"ELEMENT_SET_NO":999,"REV_AT_EPOCH":9726,"BSTAR":0.000082204849,"MEAN_MOTION_DOT":6.5e-7,"MEAN_MOTION_DDOT":0},{"OBJECT_NAME":"QIANFAN-7","OBJECT_ID":"2024-140G","EPOCH":"2026-07-21T05:28:36.479136","CLASSIFICATION_TYPE":"U","MEAN_MOTION":14.27868185,"ECCENTRICITY":0.00163926,"INCLINATION":88.9761,"RA_OF_ASC_NODE":267.7752,"ARG_OF_PERICENTER":43.8533,"MEAN_ANOMALY":316.3959,"EPHEMERIS_TYPE":0,"NORAD_CAT_ID":60385,"ELEMENT_SET_NO":999,"REV_AT_EPOCH":10185,"BSTAR":0.00012784651,"MEAN_MOTION_DOT":0.00000331,"MEAN_MOTION_DDOT":0},{"OBJECT_NAME":"QIANFAN-8","OBJECT_ID":"2024-140H","EPOCH":"2026-07-21T04:41:07.903968","CLASSIFICATION_TYPE":"U","MEAN_MOTION":13.51016156,"ECCENTRICITY":0.00142168,"INCLINATION":88.9734,"RA_OF_ASC_NODE":276.4007,"ARG_OF_PERICENTER":281.4815,"MEAN_ANOMALY":78.474,"EPHEMERIS_TYPE":0,"NORAD_CAT_ID":60386,"ELEMENT_SET_NO":999,"REV_AT_EPOCH":9711,"BSTAR":0.00009526483,"MEAN_MOTION_DOT":7.3e-7,"MEAN_MOTION_DDOT":0},{"OBJECT_NAME":"QIANFAN-9","OBJECT_ID":"2024-140J","EPOCH":"2026-07-21T05:52:03.625824","CLASSIFICATION_TYPE":"U","MEAN_MOTION":13.51021925,"ECCENTRICITY":0.00139011,"INCLINATION":88.9732,"RA_OF_ASC_NODE":276.4665,"ARG_OF_PERICENTER":281.0261,"MEAN_ANOMALY":78.9327,"EPHEMERIS_TYPE":0,"NORAD_CAT_ID":60387,"ELEMENT_SET_NO":999,"REV_AT_EPOCH":9710,"BSTAR":0.000098263224,"MEAN_MOTION_DOT":7.5e-7,"MEAN_MOTION_DDOT":0},{"OBJECT_NAME":"QIANFAN-10","OBJECT_ID":"2024-140K","EPOCH":"2026-07-21T05:57:59.729472","CLASSIFICATION_TYPE":"U","MEAN_MOTION":13.51023109,"ECCENTRICITY":0.00125359,"INCLINATION":88.9743,"RA_OF_ASC_NODE":275.8363,"ARG_OF_PERICENTER":254.2172,"MEAN_ANOMALY":105.7597,"EPHEMERIS_TYPE":0,"NORAD_CAT_ID":60388,"ELEMENT_SET_NO":999,"REV_AT_EPOCH":9723,"BSTAR":0.000086181997,"MEAN_MOTION_DOT":6.8e-7,"MEAN_MOTION_DDOT":0},{"OBJECT_NAME":"QIANFAN-11","OBJECT_ID":"2024-140L","EPOCH":"2026-07-21T05:04:46.577280","CLASSIFICATION_TYPE":"U","MEAN_MOTION":13.51017002,"ECCENTRICITY":0.00119405,"INCLINATION":88.9668,"RA_OF_ASC_NODE":276.2614,"ARG_OF_PERICENTER":280.9356,"MEAN_ANOMALY":79.0452,"EPHEMERIS_TYPE":0,"NORAD_CAT_ID":60389,"ELEMENT_SET_NO":999,"REV_AT_EPOCH":9688,"BSTAR":0.000094998471,"MEAN_MOTION_DOT":7.3e-7,"MEAN_MOTION_DDOT":0},{"OBJECT_NAME":"QIANFAN-12","OBJECT_ID":"2024-140M","EPOCH":"2026-07-21T05:34:28.903008","CLASSIFICATION_TYPE":"U","MEAN_MOTION":13.51019105,"ECCENTRICITY":0.00108001,"INCLINATION":88.9711,"RA_OF_ASC_NODE":276.3986,"ARG_OF_PERICENTER":290.8582,"MEAN_ANOMALY":69.1413,"EPHEMERIS_TYPE":0,"NORAD_CAT_ID":60390,"ELEMENT_SET_NO":999,"REV_AT_EPOCH":9701,"BSTAR":0.000088049295,"MEAN_MOTION_DOT":6.9e-7,"MEAN_MOTION_DDOT":0},{"OBJECT_NAME":"QIANFAN-13","OBJECT_ID":"2024-140N","EPOCH":"2026-07-21T04:52:56.839296","CLASSIFICATION_TYPE":"U","MEAN_MOTION":13.51019242,"ECCENTRICITY":0.00106456,"INCLINATION":88.9723,"RA_OF_ASC_NODE":276.5282,"ARG_OF_PERICENTER":294.2261,"MEAN_ANOMALY":65.7778,"EPHEMERIS_TYPE":0,"NORAD_CAT_ID":60391,"ELEMENT_SET_NO":999,"REV_AT_EPOCH":9703,"BSTAR":0.000096460517,"MEAN_MOTION_DOT":7.4e-7,"MEAN_MOTION_DDOT":0},{"OBJECT_NAME":"QIANFAN-14","OBJECT_ID":"2024-140P","EPOCH":"2026-07-21T05:28:38.532000","CLASSIFICATION_TYPE":"U","MEAN_MOTION":13.5101274,"ECCENTRICITY":0.00143255,"INCLINATION":88.9702,"RA_OF_ASC_NODE":276.3767,"ARG_OF_PERICENTER":293.2933,"MEAN_ANOMALY":66.671,"EPHEMERIS_TYPE":0,"NORAD_CAT_ID":60392,"ELEMENT_SET_NO":999,"REV_AT_EPOCH":9704,"BSTAR":0.000091576106,"MEAN_MOTION_DOT":7.1e-7,"MEAN_MOTION_DDOT":0},{"OBJECT_NAME":"QIANFAN-15","OBJECT_ID":"2024-140Q","EPOCH":"2026-07-21T05:40:24.068352","CLASSIFICATION_TYPE":"U","MEAN_MOTION":13.51013205,"ECCENTRICITY":0.0010054,"INCLINATION":88.9725,"RA_OF_ASC_NODE":276.3848,"ARG_OF_PERICENTER":277.2384,"MEAN_ANOMALY":82.7624,"EPHEMERIS_TYPE":0,"NORAD_CAT_ID":60393,"ELEMENT_SET_NO":999,"REV_AT_EPOCH":9703,"BSTAR":0.0001158752,"MEAN_MOTION_DOT":8.7e-7,"MEAN_MOTION_DDOT":0},{"OBJECT_NAME":"QIANFAN-16","OBJECT_ID":"2024-140R","EPOCH":"2026-07-21T05:22:37.067232","CLASSIFICATION_TYPE":"U","MEAN_MOTION":13.51021166,"ECCENTRICITY":0.00123272,"INCLINATION":88.9728,"RA_OF_ASC_NODE":276.5124,"ARG_OF_PERICENTER":298.3251,"MEAN_ANOMALY":61.6656,"EPHEMERIS_TYPE":0,"NORAD_CAT_ID":60394,"ELEMENT_SET_NO":999,"REV_AT_EPOCH":9694,"BSTAR":0.000088200296,"MEAN_MOTION_DOT":6.9e-7,"MEAN_MOTION_DDOT":0}]}
