QIANFAN-1               
1 60379U 24140A   26202.25277884  .00000065  00000+0  81972-4 0  9992
2 60379  88.9727 276.3986 0015288 300.7992  59.1654 13.51021168 97120
QIANFAN-2               
1 60380U 24140B   26202.20762322  .00000065  00000+0  82314-4 0  9996
2 60380  88.9714 276.2126 0010430 268.3902  91.6054 13.51016996 97170
QIANFAN-3               
1 60381U 24140C   26202.21580849  .00000072  00000+0  92798-4 0  9995
2 60381  88.9706 276.3277 0011533 283.7046  76.2821 13.51018062 97082
QIANFAN-4               
1 60382U 24140D   26202.19103191  .00000063  00000+0  79778-4 0  9997
2 60382  88.9731 276.2834 0010640 271.6550  88.3382 13.51021035 97207
QIANFAN-5               
1 60383U 24140E   26202.24051111  .00000080  00000+0  10552-3 0  9991
2 60383  88.9706 276.3497 0012877 296.9203  63.0632 13.51011700 97076
QIANFAN-6               
1 60384U 24140F   26202.18693471  .00000065  00000+0  82205-4 0  9994
2 60384  88.9733 276.1613 0010758 278.9608  81.0325 13.51019810 97260
QIANFAN-7               
1 60385U 24140G   26202.22819999  .00000331  00000+0  12785-3 0  9996
2 60385  88.9761 267.7752 0016392  43.8533 316.3959 14.27868185101857
QIANFAN-8               
1 60386U 24140H   26202.19523037  .00000073  00000+0  95265-4 0  9996
2 60386  88.9734 276.4007 0014216 281.4815  78.4740 13.51016156 97110
QIANFAN-9               
1 60387U 24140J   26202.24448641  .00000075  00000+0  98263-4 0  9993
2 60387  88.9732 276.4665 0013901 281.0261  78.9327 13.51021925 97105
QIANFAN-10              
1 60388U 24140K   26202.24860798  .00000068  00000+0  86182-4 0  9994
2 60388  88.9743 275.8363 0012535 254.2172 105.7597 13.51023109 97239
QIANFAN-11              
1 60389U 24140L   26202.21165020  .00000073  00000+0  94998-4 0  9998
2 60389  88.9668 276.2614 0011940 280.9356  79.0452 13.51017002 96887
QIANFAN-12              
1 60390U 24140M   26202.23227897  .00000069  00000+0  88049-4 0  9998
2 60390  88.9711 276.3986 0010800 290.8582  69.1413 13.51019105 97015
QIANFAN-13              
1 60391U 24140N   26202.20343564  .00000074  00000+0  96461-4 0  9999
2 60391  88.9723 276.5282 0010645 294.2261  65.7778 13.51019242 97039
QIANFAN-14              
1 60392U 24140P   26202.22822375  .00000071  00000+0  91576-4 0  9993
2 60392  88.9702 276.3767 0014325 293.2933  66.6710 13.51012740 97040
QIANFAN-15              
1 60393U 24140Q   26202.23638968  .00000087  00000+0  11588-3 0  9999
2 60393  88.9725 276.3848 0010054 277.2384  82.7624 13.51013205 97032
QIANFAN-16              
1 60394U 24140R   26202.22404013  .00000069  00000+0  88200-4 0  9997
2 60394  88.9728 276.5124 0012327 298.3251  61.6656 13.51021166 96942
